[
    {
        "Altitude(m)": 717643.1931251138,
        "Argument of Periapsis(deg)": 0.0,
        "Eccentricity": 0.0,
        "Inclination(deg)": 45.0,
        "Latitude(deg)": -44.57597127406895,
        "Longitude(deg)": 31.50231617809051,
        "Mean Anomaly(deg)": -81.81819999999996,
        "RAAN(deg)": 210.0,
        "Satellite Name": "Constellation 1 941",
        "Satellite Number": 941,
        "Semi-Major Axis(m)": 7083131.272910544,
        "Time(s)": 0
    },
    {
        "Altitude(m)": 717639.6566528423,
        "Argument of Periapsis(deg)": 5.994800624540561e-05,
        "Eccentricity": 0.0,
        "Inclination(deg)": 45.0,
        "Latitude(deg)": -44.567410971584465,
        "Longitude(deg)": 31.582139157286296,
        "Mean Anomaly(deg)": -81.7574988597501,
        "RAAN(deg)": 209.99994341083445,
        "Satellite Name": "Constellation 1 941",
        "Satellite Number": 941,
        "Semi-Major Axis(m)": 7083131.272910544,
        "Time(s)": 1
    },
    {
        "Altitude(m)": 717636.0946667454,
        "Argument of Periapsis(deg)": 0.00011989601249081122,
        "Eccentricity": 0.0,
        "Inclination(deg)": 45.0,
        "Latitude(deg)": -44.55878901694446,
        "Longitude(deg)": 31.661937486805694,
        "Mean Anomaly(deg)": -81.69679771950022,
        "RAAN(deg)": 209.99988682166887,
        "Satellite Name": "Constellation 1 941",
        "Satellite Number": 941,
        "Semi-Major Axis(m)": 7083131.272910544,
        "Time(s)": 2
    },
    {
        "Altitude(m)": 717632.5071799493,
        "Argument of Periapsis(deg)": 0.00017984401873621686,
        "Eccentricity": 0.0,
        "Inclination(deg)": 45.0,
        "Latitude(deg)": -44.55010544643809,
        "Longitude(deg)": 31.741711004637185,
        "Mean Anomaly(deg)": -81.63609657925026,
        "RAAN(deg)": 209.9998302325033,
        "Satellite Name": "Constellation 1 941",
        "Satellite Number": 941,
        "Semi-Major Axis(m)": 7083131.272910544,
        "Time(s)": 3
    },
    {
        "Altitude(m)": 717628.8942056621,
        "Argument of Periapsis(deg)": 0.00023979202498162244,
        "Eccentricity": 0.0,
        "Inclination(deg)": 45.0,
        "Latitude(deg)": -44.54136029658661,
        "Longitude(deg)": 31.821459549180098,
        "Mean Anomaly(deg)": -81.5753954390004,
        "RAAN(deg)": 209.99977364333773,
        "Satellite Name": "Constellation 1 941",
        "Satellite Number": 941,
        "Semi-Major Axis(m)": 7083131.272910544,
        "Time(s)": 4
    },
    {
        "Altitude(m)": 717625.255757203,
        "Argument of Periapsis(deg)": 0.00029974003122702807,
        "Eccentricity": 0.0,
        "Inclination(deg)": 45.0,
        "Latitude(deg)": -44.532553604142734,
        "Longitude(deg)": 31.901182959247436,
        "Mean Anomaly(deg)": -81.51469429875056,
        "RAAN(deg)": 209.99971705417215,
        "Satellite Name": "Constellation 1 941",
        "Satellite Number": 941,
        "Semi-Major Axis(m)": 7083131.272910544,
        "Time(s)": 5
    },
    {
        "Altitude(m)": 717621.5918479735,
        "Argument of Periapsis(deg)": 0.00035968803747243373,
        "Eccentricity": 0.0,
        "Inclination(deg)": 45.0,
        "Latitude(deg)": -44.52368540608983,
        "Longitude(deg)": 31.980881074067682,
        "Mean Anomaly(deg)": -81.45399315850061,
        "RAAN(deg)": 209.9996604650066,
        "Satellite Name": "Constellation 1 941",
        "Satellite Number": 941,
        "Semi-Major Axis(m)": 7083131.272910544,
        "Time(s)": 6
    },
    {
        "Altitude(m)": 717617.9024914725,
        "Argument of Periapsis(deg)": 0.00041963604371783933,
        "Eccentricity": 0.0,
        "Inclination(deg)": 45.0,
        "Latitude(deg)": -44.51475573964154,
        "Longitude(deg)": 32.06055356518976,
        "Mean Anomaly(deg)": -81.39329201825073,
        "RAAN(deg)": 209.99960387584102,
        "Satellite Name": "Constellation 1 941",
        "Satellite Number": 941,
        "Semi-Major Axis(m)": 7083131.272910544,
        "Time(s)": 7
    },
    {
        "Altitude(m)": 717614.1877012836,
        "Argument of Periapsis(deg)": 0.0004795840499632449,
        "Eccentricity": 0.0,
        "Inclination(deg)": 45.0,
        "Latitude(deg)": -44.50576464223987,
        "Longitude(deg)": 32.14020060887353,
        "Mean Anomaly(deg)": -81.33259087800079,
        "RAAN(deg)": 209.99954728667547,
        "Satellite Name": "Constellation 1 941",
        "Satellite Number": 941,
        "Semi-Major Axis(m)": 7083131.272910544,
        "Time(s)": 8
    },
    {
        "Altitude(m)": 717610.4474911036,
        "Argument of Periapsis(deg)": 0.0005395320562086505,
        "Eccentricity": 0.0,
        "Inclination(deg)": 45.0,
        "Latitude(deg)": -44.49671215155632,
        "Longitude(deg)": 32.21982187750972,
        "Mean Anomaly(deg)": -81.27188973775093,
        "RAAN(deg)": 209.9994906975099,
        "Satellite Name": "Constellation 1 941",
        "Satellite Number": 941,
        "Semi-Major Axis(m)": 7083131.272910544,
        "Time(s)": 9
    },
    {
        "Altitude(m)": 717606.6818747052,
        "Argument of Periapsis(deg)": 0.0005994800624540561,
        "Eccentricity": 0.0,
        "Inclination(deg)": 45.0,
        "Latitude(deg)": -44.48759830548984,
        "Longitude(deg)": 32.29941721201047,
        "Mean Anomaly(deg)": -81.21118859750104,
        "RAAN(deg)": 209.99943410834433,
        "Satellite Name": "Constellation 1 941",
        "Satellite Number": 941,
        "Semi-Major Axis(m)": 7083131.272910544,
        "Time(s)": 10
    },
    {
        "Altitude(m)": 717602.8908659604,
        "Argument of Periapsis(deg)": 0.0006594280686994618,
        "Eccentricity": 0.0,
        "Inclination(deg)": 45.0,
        "Latitude(deg)": -44.47842314216649,
        "Longitude(deg)": 32.378986453714035,
        "Mean Anomaly(deg)": -81.1504874572511,
        "RAAN(deg)": 209.99937751917878,
        "Satellite Name": "Constellation 1 941",
        "Satellite Number": 941,
        "Semi-Major Axis(m)": 7083131.272910544,
        "Time(s)": 11
    },
    {
        "Altitude(m)": 717599.0744788353,
        "Argument of Periapsis(deg)": 0.0007193760749448675,
        "Eccentricity": 0.0,
        "Inclination(deg)": 45.0,
        "Latitude(deg)": -44.46918669993864,
        "Longitude(deg)": 32.45852944438667,
        "Mean Anomaly(deg)": -81.08978631700121,
        "RAAN(deg)": 209.99932093001317,
        "Satellite Name": "Constellation 1 941",
        "Satellite Number": 941,
        "Semi-Major Axis(m)": 7083131.272910544,
        "Time(s)": 12
    },
    {
        "Altitude(m)": 717595.2327273876,
        "Argument of Periapsis(deg)": 0.000779324081190273,
        "Eccentricity": 0.0,
        "Inclination(deg)": 45.0,
        "Latitude(deg)": -44.459889017384405,
        "Longitude(deg)": 32.538046026225416,
        "Mean Anomaly(deg)": -81.02908517675138,
        "RAAN(deg)": 209.99926434084762,
        "Satellite Name": "Constellation 1 941",
        "Satellite Number": 941,
        "Semi-Major Axis(m)": 7083131.272910544,
        "Time(s)": 13
    },
    {
        "Altitude(m)": 717591.3656257718,
        "Argument of Periapsis(deg)": 0.0008392720874356787,
        "Eccentricity": 0.0,
        "Inclination(deg)": 45.0,
        "Latitude(deg)": -44.45053013330657,
        "Longitude(deg)": 32.617536041859715,
        "Mean Anomaly(deg)": -80.96838403650142,
        "RAAN(deg)": 209.99920775168206,
        "Satellite Name": "Constellation 1 941",
        "Satellite Number": 941,
        "Semi-Major Axis(m)": 7083131.272910544,
        "Time(s)": 14
    },
    {
        "Altitude(m)": 717587.4731882338,
        "Argument of Periapsis(deg)": 0.0008992200936810842,
        "Eccentricity": 0.0,
        "Inclination(deg)": 45.0,
        "Latitude(deg)": -44.44111008673256,
        "Longitude(deg)": 32.69699916625631,
        "Mean Anomaly(deg)": -80.90768289625156,
        "RAAN(deg)": 209.99915116251648,
        "Satellite Name": "Constellation 1 941",
        "Satellite Number": 941,
        "Semi-Major Axis(m)": 7083131.272910544,
        "Time(s)": 15
    },
    {
        "Altitude(m)": 717583.5554291073,
        "Argument of Periapsis(deg)": 0.0009591680999264898,
        "Eccentricity": 0.0,
        "Inclination(deg)": 45.0,
        "Latitude(deg)": -44.431628916912146,
        "Longitude(deg)": 32.77643557910954,
        "Mean Anomaly(deg)": -80.8469817560016,
        "RAAN(deg)": 209.99909457335093,
        "Satellite Name": "Constellation 1 941",
        "Satellite Number": 941,
        "Semi-Major Axis(m)": 7083131.272910544,
        "Time(s)": 16
    },
    {
        "Altitude(m)": 717579.6123628266,
        "Argument of Periapsis(deg)": 0.0010191161061718953,
        "Eccentricity": 0.0,
        "Inclination(deg)": 45.0,
        "Latitude(deg)": -44.422086663318765,
        "Longitude(deg)": 32.85584495626121,
        "Mean Anomaly(deg)": -80.78628061575175,
        "RAAN(deg)": 209.99903798418535,
        "Satellite Name": "Constellation 1 941",
        "Satellite Number": 941,
        "Semi-Major Axis(m)": 7083131.272910544,
        "Time(s)": 17
    },
    {
        "Altitude(m)": 717575.6440039178,
        "Argument of Periapsis(deg)": 0.001079064112417301,
        "Eccentricity": 0.0,
        "Inclination(deg)": 45.0,
        "Latitude(deg)": -44.412483365647326,
        "Longitude(deg)": 32.93522714209091,
        "Mean Anomaly(deg)": -80.72557947550187,
        "RAAN(deg)": 209.99898139501977,
        "Satellite Name": "Constellation 1 941",
        "Satellite Number": 941,
        "Semi-Major Axis(m)": 7083131.272910544,
        "Time(s)": 18
    }
]